IRIDIUM 126             
1 42809U 17039G   25006.60563115  .00000289  00000+0  96310-4 0  9994
2 42809  86.3972 213.6623 0001770  84.8123 275.3274 14.34214775394479
IRIDIUM 124             
1 42810U 17039H   25006.83130728  .00001190  00000+0  34758-3 0  9990
2 42810  86.4525 150.4139 0002273 103.2148 256.9306 14.43289275399190
IRIDIUM 128             
1 42811U 17039J   25006.73590965  .00000494  00000+0  16928-3 0  9998
2 42811  86.3959 245.1123 0001983  96.1202 264.0220 14.34212950394527
IRIDIUM 121             
1 42812U 17039K   25006.62466707  .00000028  00000+0  30729-5 0  9993
2 42812  86.3972 213.6783 0002136  89.9832 270.1608 14.34213038394352
IRIDIUM 133             
1 42955U 17061A   25006.69785720  .00000041  00000+0  77053-5 0  9998
2 42955  86.3960 245.2331 0001877  86.4064 273.7346 14.34213932379317
IRIDIUM 100             
1 42956U 17061B   25006.62174635  .00000605  00000+0  20908-3 0  9990
2 42956  86.3957 245.1957 0001867  88.3983 271.7426 14.34215738379309
IRIDIUM 122             
1 42957U 17061C   25006.72957056  .00000131  00000+0  39572-4 0  9990
2 42957  86.3960 245.1494 0001711  86.4601 273.6791 14.34213481379325
IRIDIUM 129             
1 42958U 17061D   25006.61540477  .00000688  00000+0  23845-3 0  9996
2 42958  86.3957 245.2587 0002125  72.8043 287.3385 14.34216430379323
